COMMENT,ORIGINATOR,NORAD_CAT_ID,OBJECT_NAME,OBJECT_TYPE,CLASSIFICATION_TYPE,INTLDES,EPOCH,EPOCH_MICROSECONDS,MEAN_MOTION,ECCENTRICITY,INCLINATION,RA_OF_ASC_NODE,ARG_OF_PERICENTER,MEAN_ANOMALY,EPHEMERIS_TYPE,ELEMENT_SET_NO,REV_AT_EPOCH,BSTAR,MEAN_MOTION_DOT,MEAN_MOTION_DDOT,FILE,TLE_LINE0,TLE_LINE1,TLE_LINE2,OBJECT_ID,OBJECT_NUMBER,SEMIMAJOR_AXIS,PERIOD,APOGEE,PERIGEE,DECAYED,date
GENERATED VIA SPACETRACK.ORG API,18 SPCS,46300,SPACEBEE-21,PAYLOAD,U,20061AE,2023/4/3 13:37,182880,15.48437151,0.0003968,97.4087,169.6905,224.1887,135.9047,0,999,14281,0.0029925,0.00161788,0,3879059,0 SPACEBEE-21,1 46300U 20061AE  23093.56739795  .00161788  00000-0  29925-2 0  9990,2 46300  97.4087 169.6905 0003968 224.1887 135.9047 15.48437151142818,2020-061AE,46300,6799.434,92.997,423.997,418.601,1,
GENERATED VIA SPACETRACK.ORG API,18 SPCS,46300,SPACEBEE-21,PAYLOAD,U,20061AE,2023/4/3 19:49,231584,15.48539762,0.0004037,97.4085,169.9554,223.732,136.3612,0,999,14285,0.0033178,0.00180457,0,3879271,0 SPACEBEE-21,1 46300U 20061AE  23093.82588231  .00180457  00000-0  33178-2 0  9995,2 46300  97.4085 169.9554 0004037 223.7320 136.3612 15.48539762142852,2020-061AE,46300,6799.134,92.991,423.744,418.254,1,
GENERATED VIA SPACETRACK.ORG API,18 SPCS,46300,SPACEBEE-21,PAYLOAD,U,20061AE,2023/4/3 19:49,231584,15.48539762,0.0004037,97.4085,169.9554,223.732,136.3612,0,999,14285,0.0033178,0.00180457,0,3879321,0 SPACEBEE-21,1 46300U 20061AE  23093.82588231  .00180457  00000-0  33178-2 0  9995,2 46300  97.4085 169.9554 0004037 223.7320 136.3612 15.48539762142852,2020-061AE,46300,6799.134,92.991,423.744,418.254,1,
GENERATED VIA SPACETRACK.ORG API,18 SPCS,46300,SPACEBEE-21,PAYLOAD,U,20061AE,2023/4/4 12:52,451488,15.48776321,0.0004034,97.4084,170.6845,221.8075,138.2868,0,999,14296,0.0027995,0.00152973,0,3879974,0 SPACEBEE-21,1 46300U 20061AE  23094.53663717  .00152973  00000-0  27995-2 0  9999,2 46300  97.4084 170.6845 0004034 221.8075 138.2868 15.48776321142966,2020-061AE,46300,6798.442,92.977,423.049,417.564,1,
GENERATED VIA SPACETRACK.ORG API,18 SPCS,46300,SPACEBEE-21,PAYLOAD,U,20061AE,2023/4/4 20:37,608960,15.48883967,0.0004087,97.4082,171.0158,221.1191,138.9752,0,999,14301,0.0027591,0.001513,0,3880152,0 SPACEBEE-21,1 46300U 20061AE  23094.85967140  .00151300  00000-0  27591-2 0  9996,2 46300  97.4082 171.0158 0004087 221.1191 138.9752 15.48883967143017,2020-061AE,46300,6798.127,92.97,422.77,417.213,1,
GENERATED VIA SPACETRACK.ORG API,18 SPCS,46300,SPACEBEE-21,PAYLOAD,U,20061AE,2023/4/4 20:37,608960,15.48883967,0.0004087,97.4082,171.0158,221.1191,138.9752,0,999,14301,0.0027591,0.001513,0,3880211,0 SPACEBEE-21,1 46300U 20061AE  23094.85967140  .00151300  00000-0  27591-2 0  9996,2 46300  97.4082 171.0158 0004087 221.1191 138.9752 15.48883967143017,2020-061AE,46300,6798.127,92.97,422.77,417.213,1,
GENERATED VIA SPACETRACK.ORG API,18 SPCS,46300,SPACEBEE-21,PAYLOAD,U,20061AE,2023/4/5 4:23,883776,15.49000414,0.0004105,97.408,171.3471,221.5424,138.5515,0,999,14306,0.0031393,0.00173348,0,3880521,0 SPACEBEE-21,1 46300U 20061AE  23095.18268384  .00173348  00000-0  31393-2 0  9998,2 46300  97.4080 171.3471 0004105 221.5424 138.5515 15.49000414143067,2020-061AE,46300,6797.786,92.963,422.441,416.86,1,
GENERATED VIA SPACETRACK.ORG API,18 SPCS,46300,SPACEBEE-21,PAYLOAD,U,20061AE,2023/4/5 13:41,317632,15.49118428,0.0004114,97.4078,171.7453,221.9097,138.1839,0,999,14312,0.0029532,0.00163535,0,3880853,0 SPACEBEE-21,1 46300U 20061AE  23095.57026988  .00163535  00000-0  29532-2 0  9992,2 46300  97.4078 171.7453 0004114 221.9097 138.1839 15.49118428143125,2020-061AE,46300,6797.441,92.956,422.102,416.509,1,
GENERATED VIA SPACETRACK.ORG API,18 SPCS,46300,SPACEBEE-21,PAYLOAD,U,20061AE,2023/4/5 19:53,695584,15.49207706,0.0004169,97.4077,172.0103,221.4828,138.6107,0,999,14316,0.0029601,0.00164449,0,3881153,0 SPACEBEE-21,1 46300U 20061AE  23095.82864231  .00164449  00000-0  29601-2 0  9993,2 46300  97.4077 172.0103 0004169 221.4828 138.6107 15.49207706143162,2020-061AE,46300,6797.18,92.951,421.878,416.211,1,
GENERATED VIA SPACETRACK.ORG API,18 SPCS,46300,SPACEBEE-21,PAYLOAD,U,20061AE,2023/4/5 21:26,366624,15.49226096,0.0004185,97.4077,172.0765,221.381,138.7124,0,999,14317,0.0028788,0.00159941,0,3881113,0 SPACEBEE-21,1 46300U 20061AE  23095.89323341  .00159941  00000-0  28788-2 0  9998,2 46300  97.4077 172.0765 0004185 221.3810 138.7124 15.49226096143178,2020-061AE,46300,6797.126,92.95,421.835,416.146,1,
GENERATED VIA SPACETRACK.ORG API,18 SPCS,46300,SPACEBEE-21,PAYLOAD,U,20061AE,2023/4/6 9:50,960640,15.49391151,0.0004098,97.4073,172.6072,220.3803,139.7144,0,999,14325,0.0027816,0.0015534,0,3881771,0 SPACEBEE-21,1 46300U 20061AE  23096.40993010  .00155340  00000-0  27816-2 0  9992,2 46300  97.4073 172.6072 0004098 220.3803 139.7144 15.49391151143252,2020-061AE,46300,6796.643,92.94,421.293,415.723,1,
GENERATED VIA SPACETRACK.ORG API,18 SPCS,46300,SPACEBEE-21,PAYLOAD,U,20061AE,2023/4/6 22:14,851904,15.49553113,0.0004139,97.4069,173.1374,220.0239,140.0708,0,999,14333,0.0027084,0.00152046,0,3881984,0 SPACEBEE-21,1 46300U 20061AE  23096.92657236  .00152046  00000-0  27084-2 0  9993,2 46300  97.4069 173.1374 0004139 220.0239 140.0708 15.49553113143332,2020-061AE,46300,6796.169,92.93,420.847,415.221,1,
GENERATED VIA SPACETRACK.ORG API,18 SPCS,46300,SPACEBEE-21,PAYLOAD,U,20061AE,2023/4/6 22:14,851904,15.49553113,0.0004139,97.4069,173.1374,220.0239,140.0708,0,999,14333,0.0027084,0.00152046,0,3882049,0 SPACEBEE-21,1 46300U 20061AE  23096.92657236  .00152046  00000-0  27084-2 0  9993,2 46300  97.4069 173.1374 0004139 220.0239 140.0708 15.49553113143332,2020-061AE,46300,6796.169,92.93,420.847,415.221,1,
GENERATED VIA SPACETRACK.ORG API,18 SPCS,46300,SPACEBEE-21,PAYLOAD,U,20061AE,2023/4/7 4:26,940800,15.49649312,0.0004161,97.4068,173.4024,219.6275,140.4672,0,999,14337,0.003037,0.00171504,0,3882297,0 SPACEBEE-21,1 46300U 20061AE  23097.18487200  .00171504  00000-0  30370-2 0  9996,2 46300  97.4068 173.4024 0004161 219.6275 140.4672 15.49649312143370,2020-061AE,46300,6795.888,92.924,420.581,414.925,1,
GENERATED VIA SPACETRACK.ORG API,18 SPCS,46300,SPACEBEE-21,PAYLOAD,U,20061AE,2023/4/7 10:38,821824,15.49731675,0.0004126,97.4067,173.6681,219.76,140.335,0,999,14341,0.0031055,0.00175981,0,3882626,0 SPACEBEE-21,1 46300U 20061AE  23097.44315766  .00175981  00000-0  31055-2 0  9996,2 46300  97.4067 173.6681 0004126 219.7600 140.3350 15.49731675143415,2020-061AE,46300,6795.647,92.919,420.316,414.708,1,
GENERATED VIA SPACETRACK.ORG API,18 SPCS,46300,SPACEBEE-21,PAYLOAD,U,20061AE,2023/4/8 3:40,248352,15.499604,0.0004263,97.4065,174.3978,219.2388,140.8555,0,999,14352,0.0027554,0.00157013,0,3883152,0 SPACEBEE-21,1 46300U 20061AE  23098.15337093  .00157013  00000-0  27554-2 0  9997,2 46300  97.4065 174.3978 0004263 219.2388 140.8555 15.49960400143524,2020-061AE,46300,6794.979,92.906,419.741,413.947,1,
GENERATED VIA SPACETRACK.ORG API,18 SPCS,46300,SPACEBEE-21,PAYLOAD,U,20061AE,2023/4/8 3:40,248352,15.499604,0.0004263,97.4065,174.3978,219.2388,140.8555,0,999,14352,0.0027554,0.00157013,0,3883527,0 SPACEBEE-21,1 46300U 20061AE  23098.15337093  .00157013  00000-0  27554-2 0  9997,2 46300  97.4065 174.3978 0004263 219.2388 140.8555 15.49960400143524,2020-061AE,46300,6794.979,92.906,419.741,413.947,1,
GENERATED VIA SPACETRACK.ORG API,18 SPCS,46300,SPACEBEE-21,PAYLOAD,U,20061AE,2023/4/9 6:01,818304,15.50304896,0.0004234,97.4058,175.5256,218.283,141.8121,0,999,14369,0.0028087,0.00162108,0,3884028,0 SPACEBEE-21,1 46300U 20061AE  23099.25077336  .00162108  00000-0  28087-2 0  9993,2 46300  97.4058 175.5256 0004234 218.2830 141.8121 15.50304896143698,2020-061AE,46300,6793.972,92.885,418.714,412.961,1,
GENERATED VIA SPACETRACK.ORG API,18 SPCS,46300,SPACEBEE-21,PAYLOAD,U,20061AE,2023/4/9 10:39,836512,15.50359036,0.0004207,97.4057,175.725,218.2931,141.8022,0,999,14372,0.0028103,0.00162517,0,3884332,0 SPACEBEE-21,1 46300U 20061AE  23099.44440783  .00162517  00000-0  28103-2 0  9997,2 46300  97.4057 175.7250 0004207 218.2931 141.8022 15.50359036143725,2020-061AE,46300,6793.814,92.882,418.537,412.821,1,
GENERATED VIA SPACETRACK.ORG API,18 SPCS,46300,SPACEBEE-21,PAYLOAD,U,20061AE,2023/4/9 18:24,784384,15.50456759,0.0004217,97.4054,176.0566,218.6734,141.4216,0,999,14377,0.0026359,0.00152763,0,3884589,0 SPACEBEE-21,1 46300U 20061AE  23099.76711556  .00152763  00000-0  26359-2 0  9994,2 46300  97.4054 176.0566 0004217 218.6734 141.4216 15.50456759143778,2020-061AE,46300,6793.529,92.876,418.258,412.529,1,
GENERATED VIA SPACETRACK.ORG API,18 SPCS,46300,SPACEBEE-21,PAYLOAD,U,20061AE,2023/4/9 18:24,784384,15.50456759,0.0004217,97.4054,176.0566,218.6734,141.4216,0,999,14377,0.0026359,0.00152763,0,3884641,0 SPACEBEE-21,1 46300U 20061AE  23099.76711556  .00152763  00000-0  26359-2 0  9994,2 46300  97.4054 176.0566 0004217 218.6734 141.4216 15.50456759143778,2020-061AE,46300,6793.529,92.876,418.258,412.529,1,
GENERATED VIA SPACETRACK.ORG API,18 SPCS,46300,SPACEBEE-21,PAYLOAD,U,20061AE,2023/4/10 3:42,664096,15.50586176,0.0004228,97.4053,176.4545,217.7038,142.3918,0,999,14383,0.0028419,0.00165735,0,3885150,0 SPACEBEE-21,1 46300U 20061AE  23100.15433639  .00165735  00000-0  28419-2 0  9995,2 46300  97.4053 176.4545 0004228 217.7038 142.3918 15.50586176143830,2020-061AE,46300,6793.15,92.868,417.888,412.143,1,
GENERATED VIA SPACETRACK.ORG API,18 SPCS,46300,SPACEBEE-21,PAYLOAD,U,20061AE,2023/4/10 3:42,664096,15.50586176,0.0004228,97.4053,176.4545,217.7038,142.3918,0,999,14383,0.0028419,0.00165735,0,3885195,0 SPACEBEE-21,1 46300U 20061AE  23100.15433639  .00165735  00000-0  28419-2 0  9995,2 46300  97.4053 176.4545 0004228 217.7038 142.3918 15.50586176143830,2020-061AE,46300,6793.15,92.868,417.888,412.143,1,
